{
  "type": "FeatureCollection",
  "name": "2024020124_TOBARRA_20240802_1830",
  "crs": {
    "type": "name",
    "properties": {
      "name": "EPSG:4326"
    }
  },
  "features": [
    {
      "type": "Feature",
      "properties": {
        "name": "Perímetro activo",
        "sup_ha": 21.489832,
        "sup_ha_source": "description_html_Sup_ha",
        "time_local_inferred": "2024-08-02T18:30:00",
        "time_source": "filename_YYYYMMDD_HHMM_local",
        "n_vertices": 34,
        "source_path": "C:/Users/Mariano/Documents/ALONSOO/WildfireFrontDynamics/data/real_if/pablo_geacam_20260730_tobarra/2024020124_TOBARRA_20240802_1830.kmz",
        "crs": "EPSG:4326",
        "product_class": "operational_active_perimeter",
        "notes": "operational_active_perimeter_not_national_cadastre",
        "area_ha_geom_utm30n": 21.489833
      },
      "geometry": {
        "type": "Polygon",
        "coordinates": [
          [
            [
              -1.70909164463672,
              38.63312659453243
            ],
            [
              -1.7082977108937,
              38.63331935675052
            ],
            [
              -1.708319168950867,
              38.63373002022068
            ],
            [
              -1.708362084166937,
              38.63435858119801
            ],
            [
              -1.708013396801214,
              38.63439629629536
            ],
            [
              -1.707871240204136,
              38.63437324775388
            ],
            [
              -1.707810890485032,
              38.63447905583775
            ],
            [
              -1.707480307765512,
              38.63470795541136
            ],
            [
              -1.707110665399164,
              38.63492441433945
            ],
            [
              -1.706429887940857,
              38.63482240457316
            ],
            [
              -1.705615502253753,
              38.63486980794504
            ],
            [
              -1.704775970026866,
              38.63473257357482
            ],
            [
              -1.703943144621909,
              38.63513746722536
            ],
            [
              -1.70400081197158,
              38.63554235788725
            ],
            [
              -1.703810040347949,
              38.63586416212384
            ],
            [
              -1.702567841888217,
              38.63556579830524
            ],
            [
              -1.70256180700615,
              38.63618426049207
            ],
            [
              -1.701659914630555,
              38.63687814354237
            ],
            [
              -1.701563019649066,
              38.63725022330635
            ],
            [
              -1.701895278624903,
              38.63742117166426
            ],
            [
              -1.702589970088618,
              38.63761549200057
            ],
            [
              -1.703662854083589,
              38.63790775880313
            ],
            [
              -1.705744247901929,
              38.63823459257102
            ],
            [
              -1.707586926111651,
              38.63724361060518
            ],
            [
              -1.708421092701341,
              38.63659202850073
            ],
            [
              -1.7093062216154,
              38.63588386938931
            ],
            [
              -1.709510070014612,
              38.63548997987538
            ],
            [
              -1.709681730878892,
              38.63535588893113
            ],
            [
              -1.710121613415621,
              38.63488237979058
            ],
            [
              -1.710754614873863,
              38.63399820723923
            ],
            [
              -1.710625868327322,
              38.63322716676885
            ],
            [
              -1.709520798594047,
              38.63311821450046
            ],
            [
              -1.709166746489425,
              38.63320202389838
            ],
            [
              -1.70909164463672,
              38.63312659453243
            ]
          ]
        ]
      }
    }
  ],
  "properties": {
    "disclaimer": "Operational active perimeters (INFOCAM/GEACAM style). Not national cadastre. Area growth ≠ Vp m/min."
  }
}