<?xml version="1.0" encoding="UTF-8"?>
<kml xmlns="http://www.opengis.net/kml/2.2" xmlns:gx="http://www.google.com/kml/ext/2.2" xmlns:xsi="http://www.w3.org/2001/XMLSchema-instance"
 xsi:schemaLocation="http://www.opengis.net/kml/2.2 http://schemas.opengis.net/kml/2.2.0/ogckml22.xsd http://www.google.com/kml/ext/2.2 http://code.google.com/apis/kml/schema/kml22gx.xsd">
<Document id="WGS84_2024020124_TOBARRA_Lay">
  <name>WGS84_2024020124_TOBARRA_Lay</name>
  <snippet></snippet>
  <description><![CDATA[WGS84_2024020124_TOBARRA_Lay]]></description>
  <Folder id="FeatureLayer0">
    <name>WGS84_2024020124_TOBARRA_Lay</name>
    <snippet></snippet>
    <description><![CDATA[WGS84_2024020124_TOBARRA_Lay]]></description>
    <Placemark id="ID_00000">
      <name>Perímetro activo</name>
      <snippet></snippet>
      <description><![CDATA[<html xmlns:fo="http://www.w3.org/1999/XSL/Format" xmlns:msxsl="urn:schemas-microsoft-com:xslt">
<head>
<META http-equiv="Content-Type" content="text/html">
<meta http-equiv="content-type" content="text/html; charset=UTF-8">
</head>
<body style="margin:0px 0px 0px 0px;overflow:auto;background:#FFFFFF;">
<table style="font-family:Arial,Verdana,Times;font-size:12px;text-align:left;width:100%;border-collapse:collapse;padding:3px 3px 3px 3px">
<tr style="text-align:center;font-weight:bold;background:#9CBCE2">
<td>Perímetro activo</td>
</tr>
<tr>
<td>
<table style="font-family:Arial,Verdana,Times;font-size:12px;text-align:left;width:100%;border-spacing:0px; padding:3px 3px 3px 3px">
<tr>
<td>FID</td>
<td>1</td>
</tr>
<tr bgcolor="#D4E4F3">
<td>Id</td>
<td>&lt;Nulo&gt;</td>
</tr>
<tr>
<td>Tipo</td>
<td>Perímetro activo</td>
</tr>
<tr bgcolor="#D4E4F3">
<td>Caracteristicas</td>
<td>&lt;Nulo&gt;</td>
</tr>
<tr>
<td>Perímetro (m)</td>
<td>&lt;Nulo&gt;</td>
</tr>
<tr bgcolor="#D4E4F3">
<td>Fecha</td>
<td>&lt;Nulo&gt;</td>
</tr>
<tr>
<td>Poligono</td>
<td>&lt;Nulo&gt;</td>
</tr>
<tr bgcolor="#D4E4F3">
<td>Superficie (ha)</td>
<td>&lt;Nulo&gt;</td>
</tr>
<tr>
<td>GlobalID</td>
<td>&lt;Nulo&gt;</td>
</tr>
<tr bgcolor="#D4E4F3">
<td>Shape__Are</td>
<td>&lt;Nulo&gt;</td>
</tr>
<tr>
<td>Shape__Len</td>
<td>&lt;Nulo&gt;</td>
</tr>
<tr bgcolor="#D4E4F3">
<td>Ultima Actualización</td>
<td>&lt;Nulo&gt;</td>
</tr>
<tr>
<td>ID del Incendio</td>
<td>&lt;Nulo&gt;</td>
</tr>
<tr bgcolor="#D4E4F3">
<td>Sup_ha</td>
<td>21,489832</td>
</tr>
</table>
</td>
</tr>
</table>
</body><script type="text/javascript">
				function changeImage(attElement, nameElement) {
				document.getElementById('imageAttachment').src = attElement;
				document.getElementById('imageName').innerHTML = nameElement;}
			</script></html>
]]></description>
      <styleUrl>#PolyStyle00</styleUrl>
      <MultiGeometry>
        <Polygon>
          <extrude>0</extrude><altitudeMode>clampToGround</altitudeMode>
          <outerBoundaryIs><LinearRing><coordinates> -1.70909164463672,38.63312659453243,0 -1.7082977108937,38.63331935675052,0 -1.708319168950867,38.63373002022068,0 -1.708362084166937,38.63435858119801,0 -1.708013396801214,38.63439629629536,0 -1.707871240204136,38.63437324775388,0 -1.707810890485032,38.63447905583775,0 -1.707480307765512,38.63470795541136,0 -1.707110665399164,38.63492441433945,0 -1.706429887940857,38.63482240457316,0 -1.705615502253753,38.63486980794504,0 -1.704775970026866,38.63473257357482,0 -1.703943144621909,38.63513746722536,0 -1.70400081197158,38.63554235788725,0 -1.703810040347949,38.63586416212384,0 -1.702567841888217,38.63556579830524,0 -1.70256180700615,38.63618426049207,0 -1.701659914630555,38.63687814354237,0 -1.701563019649066,38.63725022330635,0 -1.701895278624903,38.63742117166426,0 -1.702589970088618,38.63761549200057,0 -1.703662854083589,38.63790775880313,0 -1.705744247901929,38.63823459257102,0 -1.707586926111651,38.63724361060518,0 -1.708421092701341,38.63659202850073,0 -1.7093062216154,38.63588386938931,0 -1.709510070014612,38.63548997987538,0 -1.709681730878892,38.63535588893113,0 -1.710121613415621,38.63488237979058,0 -1.710754614873863,38.63399820723923,0 -1.710625868327322,38.63322716676885,0 -1.709520798594047,38.63311821450046,0 -1.709166746489425,38.63320202389838,0 -1.70909164463672,38.63312659453243,0</coordinates></LinearRing></outerBoundaryIs>
        </Polygon>
      </MultiGeometry>
    </Placemark>
  </Folder>
  <Style id="PolyStyle00">
    <LabelStyle>
      <color>00000000</color>
      <scale>0.000000</scale>
    </LabelStyle>
    <LineStyle>
      <color>ff0000ff</color>
      <width>2.000000</width>
    </LineStyle>
    <PolyStyle>
      <color>00000000</color>
      <outline>1</outline>
    </PolyStyle>
  </Style>
</Document>
</kml>